IRIDIUM 39              
1 25042U 97069D   25065.58740242  .00001058  00000+0  27362-3 0  9990
2 25042  86.3859 255.1154 0016018 292.2703  67.6802 14.48957453434109
IRIDIUM 38              
1 25043U 97069E   25065.67367547  .00000609  00000+0  19528-3 0  9990
2 25043  86.3903 276.3066 0003966  81.8358 278.3289 14.37949994431222
IRIDIUM 42              
1 25077U 97077A   25065.69370479  .00000557  00000+0  18436-3 0  9995
2 25077  86.3914 282.3475 0002804  89.3268 270.8250 14.36199748426485
IRIDIUM 44              
1 25078U 97077B   25065.64667753  .00000698  00000+0  21516-3 0  9994
2 25078  86.3899 264.5428 0002952  50.7445 309.4015 14.40075733428944
IRIDIUM 45              
1 25104U 97082A   25065.62515614  .00019853  00000+0  80560-3 0  9993
2 25104  86.3563  97.5361 0126872 356.2825   3.7459 15.17280268436464
IRIDIUM 51              
1 25262U 98018A   25065.59198005  .00029213  00000+0  83171-3 0  9997
2 25262  86.3840 106.3157 0099284 282.1533  76.8607 15.31078340431506
